"KATL 240852Z 00000KT 10SM FEW250 22/18 A3004 RMK AO2 SLP160 T02170183 52003"
"ZBAA 240830Z VRB01MPS CAVOK 29/15 Q1009 NOSIG"
"OMDB 240900Z 20005KT 130V260 CAVOK 41/08 Q1007 BECMG 33012KT"
"KLAX 240853Z 05004KT 10SM CLR 17/13 A2986 RMK AO2 SLP108 T01670133 53003"
"RJTT 240830Z 18010KT 9999 FEW025 SCT040 BKN/// 24/18 Q1014 NOSIG"
"KORD 240851Z 13003KT 10SM CLR 22/18 A3007 RMK AO2 SLP176 T02220183 51003"
"EGLL 240850Z AUTO 12006KT 9999 NCD 18/13 Q1020 NOSIG"
"VHHH 240900Z 13016KT 100V160 9999 FEW018 SCT028 31/25 Q1007 NOSIG"
"ZSPD 240830Z 11005MPS 9999 -RA BKN007 OVC040 23/22 Q1011 NOSIG"
"LFPG 240900Z 12006KT CAVOK 17/11 Q1021 NOSIG"
"KDFW 240853Z 17007KT 10SM FEW250 25/20 A2988 RMK AO2 SLP109 T02500200 53004"
"EHAM 240855Z 02003KT 3000 BR FEW003 SCT004 14/13 Q1023 BECMG 4000"
"EDDF 240850Z 06006KT 020V090 CAVOK 16/11 Q1022 NOSIG"
"LTBA 240850Z 17008KT 130V190 9999 SCT033 22/14 Q1021 NOSIG RMK RWY17L 17007KT 130V190 RWY05 14006KT 100V170 RWY23 15006KT 110V180"
"ZGGG 240830Z 11005MPS 080V140 9999 SCT040 33/24 Q1007 NOSIG"
"KJFK 240851Z 02003KT 10SM CLR 19/16 A3006 RMK AO2 SLP177 T01890156 53002"
"WSSS 240900Z 21005KT 180V260 9999 FEW022 BKN150 30/25 Q1008 NOSIG"
"KDEN 240853Z 00000KT 10SM BKN008 OVC010 08/06 A2998 RMK AO2 SLP118 T00780061 56010"
"RKSI 240830Z 29008KT 5000 BR FEW005 SCT025 24/20 Q1014 NOSIG"
"VTBS 240830Z 19011KT 9999 FEW020 SCT030 31/23 Q1005 NOSIG"
"VIDP 240900Z 32007KT 3000 HZ SCT030 BKN100 30/24 Q1008 NOSIG"
"WIII 240900Z 09007KT 6000 SCT020 30/23 Q1008 NOSIG"
"KSFO 240856Z 27006KT 10SM CLR 14/08 A2991 RMK AO2 SLP128 T01440083 53003"
"WMKK 240830Z VRB04KT 9999 FEW018 BKN280 32/22 Q1007 NOSIG"
"LEMD 240900Z 36001KT CAVOK 20/08 Q1023 NOSIG"
"KLAS 240856Z 07004KT 10SM CLR 15/01 A2994 RMK AO2 SLP124 T01500011 51007"
"ZUUU 240800Z 10003MPS 060V120 4000 -SHRA BR FEW023 SCT050 24/21 Q1007 NOSIG"
"KSEA 240853Z 35004KT 10SM CLR 12/08 A3014 RMK AO2 SLP213 T01220083 53006"
"VABB 240830Z 28010KT 4000 HZ SCT020 SCT025 BKN100 30/25 Q1009 NOSIG"
"KMIA 240853Z 00000KT 10SM FEW024 FEW040 SCT250 27/26 A2981 RMK AO2 LTG DSNT N SLP094 CB DSNT N 60001 T02670261 56005"
"KCLT 240852Z 36004KT 10SM FEW250 19/17 A3008 RMK AO2 SLP177 T01890172 53004"
"CYYZ 240800Z 32004KT 15SM SKC 22/18 A3012 RMK SLP197 DENSITY ALT 1300FT"
"LEBL 240900Z 32006KT 280V350 9999 FEW020 22/17 Q1020 NOSIG"
"KPHX 240851Z 23003KT 10SM CLR 21/M01 A2974 RMK AO2 SLP056 T02061006 51002"
"EGKK 240850Z 07005KT 030V130 CAVOK 16/14 Q1019"
"RCTP 240855Z 35005KT 310V020 9999 VCTS FEW008 BKN012 FEW020CB 30/27 Q1010 NOSIG RMK TS SE-S STNRY A2983"
"EDDM 240850Z VRB02KT CAVOK 14/10 Q1022 NOSIG"
"YSSY 240830Z 29013KT CAVOK 25/M00 Q1003 FM0830 MOD/SEV TURB BLW 5000FT"
"ZPPP 240900Z 22007MPS 190V250 9999 FEW026TCU SCT026 24/15 Q1018 NOSIG"
"ZGSZ 240900Z 10007MPS 9999 FEW015 SCT030 31/25 Q1007 NOSIG"
"KMCO 240853Z 35006KT 10SM FEW028 FEW060 SCT250 23/23 A2987 RMK AO2 SLP112 T02330233 56002 $"
"LIRF 240850Z 07004KT 030V110 CAVOK 20/12 Q1019 NOSIG"
"KIAH 240853Z 00000KT 8SM FEW250 23/22 A2988 RMK AO2 SLP117 T02280222 58001"
"MMMX 240855Z 27004KT 12SM SCT020 BKN080 16/12 A3019 NOSIG RMK SLP036 57007 962 8/530"
"ZSSS 240900Z 10004MPS 9999 -RA BKN008 OVC030 23/22 Q1010 NOSIG"
"KEWR 240851Z 02003KT 10SM CLR 20/14 A3005 RMK AO2 SLP174 T02000144 53004 $"
"RPLL 240900Z 13007KT 090V190 9999 FEW025 BKN300 32/24 Q1009 NOSIG RMK A2980"
"RJAA 240900Z 15004KT CAVOK 21/19 Q1015 NOSIG RMK 7SC050 A2999"
"KMSP 240853Z 18009KT 10SM CLR 24/18 A2993 RMK AO2 SLP129 T02440183 57003"
