AYPY 191800Z 34005KT 9999 FEW012 BKN040 OVC140 24/23 Q1008
BIKF 191800Z 07016KT 9999 -RA FEW038 BKN045 OVC060 08/05 Q0991
BKPR 191800Z 00000KT CAVOK 13/06 Q1019 NOSIG
CYEG 191800Z 16009KT 15SM FEW040 FEW080 FEW140 BKN230 11/02 A2939 RMK CU1ACC1AC1CI6 CU TR ACC TR SLP968 DENSITY ALT 3100FT
CYHZ 191800Z 20015G20KT 15SM FEW045 FEW270 17/09 A3018 RMK CF1CI2 CF TR SLP224 DENSITY ALT 600FT
CYOW 191800Z 22016G30KT 15SM BKN040 BKN100 19/10 A2984 RMK SC6AC1 PRESFR SLP106 DENSITY ALT 1100FT
CYUL 191800Z 22019KT 30SM FEW030 SCT180 BKN240 20/08 A2982 RMK CU1AC3CI3 CU TR SLP101 DENSITY ALT 900FT
CYVR 191813Z 15011KT 15SM -RA SCT012 BKN053 BKN100 BKN150 11/10 A2948 RMK SC3SC2AC1AC1 VIS NE-E 6 SLP984 DENSITY ALT 100FT
CYWG 191800Z 16014KT 15SM SCT200 BKN230 15/M03 A2974 RMK CI3CI4 SLP077 DENSITY ALT 1300FT
CYYC 191800Z 16006KT 15SM FEW160 SCT220 12/02 A2943 RMK AC2CC2 SLP988 DENSITY ALT 4700FT
CYYJ 191807Z VRB02KT 7SM SHRA FEW006 FEW019TCU FEW025 OVC044 11/10 A2949 RMK SF1TCU1SC1SC6 SF TR SLP990 DENSITY ALT 100FT
CYYT 191800Z 28008KT 250V330 15SM BKN024 08/03 A3021 RMK SC5 SLP238
CYYZ 191800Z 28018G24KT 15SM FEW035 BKN260 20/09 A2998 RMK CU1CI4 SLP153 DENSITY ALT 1300FT
DGAA 191800Z 19009KT 9999 FEW017 27/25 Q1012 NOSIG
DNMM 191800Z 21007KT 7000 FEW011 FEW020CB 27/24 Q1014 NOSIG
DTTA 191800Z 11007KT 080V150 9999 FEW033 24/19 Q1013 NOSIG
EBBR 191750Z 16006KT CAVOK 19/14 Q1007 NOSIG
EBCI 191750Z 17007KT 9999 FEW045 19/12 Q1008 NOSIG
EBLG 191750Z 16006KT CAVOK 18/11 Q1009 NOSIG
EDDB 191750Z 09005KT 6000 NSC 11/11 Q1014 TEMPO 2500 BCFG
EDDC 191750Z 15006KT CAVOK 11/09 Q1015 NOSIG
EDDF 191750Z VRB02KT CAVOK 14/12 Q1012 NOSIG
EDDG 191750Z 12003KT 060V170 CAVOK 13/12 Q1010 NOSIG
EDDH 191750Z 11006KT 090V150 7000 NSC 13/12 Q1012 BECMG 4000 BR
EDDK 191750Z 12006KT 080V150 CAVOK 18/13 Q1010 NOSIG
EDDL 191750Z 14010KT CAVOK 18/13 Q1009 NOSIG
EDDM 191750Z 05004KT CAVOK 12/10 Q1015 NOSIG
EDDN 191750Z 09008KT CAVOK 13/10 Q1015 NOSIG
EDDP 191750Z 14008KT CAVOK 15/10 Q1013 NOSIG
EDDS 191750Z VRB01KT CAVOK 14/10 Q1013 NOSIG
EDDT 191750Z 09003KT 060V120 7000 MIFG NSC 13/12 Q1014 TEMPO 4000 BR
EDDV 191750Z 10006KT 7000 NSC 14/12 Q1011 TEMPO 4000 BR
EDDW 191750Z 11006KT CAVOK 14/12 Q1010 TEMPO 4000 BR
EDLW 191750Z 19008KT CAVOK 17/11 Q1010
EDSB 191750Z 02003KT CAVOK 13/12 Q1012
EETN 191820Z 35004KT 320V030 9999 SCT023 07/03 Q1020 NOSIG
EFHK 191820Z 28005KT 9999 FEW030 03/01 Q1020 NOSIG
EGAA 191750Z 11011KT 9000 -RA SCT010 SCT016 BKN022 12/12 Q0994
EGAC 191750Z 11006KT 070V150 6000 RA FEW008 SCT012 BKN020 13/13 Q0994
EGBB 191750Z 15010KT 6000 DZRA SCT011 BKN033 13/13 Q0998
EGCC 191750Z AUTO 15004KT 100V220 9999 -RA //////TCU 14/12 Q0997 NOSIG
EGCN 191750Z 15010KT 3000 R20/0650 -RADZ SCT009 BKN014 BKN020 16/16 Q0998
EGFF 191750Z AUTO 14016KT 2600 RADZ BKN005 BKN010 BKN014 14/13 Q0994
EGGD 191750Z 14019KT 6000 RADZ BKN008 13/12 Q0996 RERA REDZ
EGGP 191750Z 14007KT 110V170 9999 FEW013 13/13 Q0996
EGGW 191750Z AUTO 17009KT 9999 BKN012 14/13 Q1001
EGHH 191750Z 17017KT 6000 RA SCT027 15/13 Q0999
EGHI 191750Z 16008KT 120V220 6000 RA SCT022 14/12 Q1000
EGKK 191750Z 16006KT 130V190 9999 FEW013 SCT017 15/14 Q1001
EGLL 191750Z AUTO 16008KT 130V220 9999 NCD 15/13 Q1001 NOSIG
EGNM 191750Z 13011KT 1400 R14/P1500 RA BR SCT001 BKN002 13/13 Q0997
EGNT 191750Z 10008KT 1800 RA BKN002 12/12 Q0997 RERA
EGNX 191750Z 17012G23KT 160V220 9999 FEW012 14/12 Q0998
EGPD 191750Z AUTO 15009KT 7000 OVC006 12/11 Q1000 TEMPO 4000 RA BKN004
EGPF 191750Z AUTO 06010KT 9000 -RA //////TCU 12/11 Q0997
EGPH 191750Z 07008KT 9000 -RA SCT040 12/11 Q0998
EGSH 191750Z 17010KT 140V200 9999 FEW013 16/15 Q1002 TEMPO BKN013
EGSS 191750Z 18013KT 9999 FEW043 15/13 Q1002
EGTE 191750Z 20019G31KT 160V220 9999 SCT015 14/13 Q0994
EGUL 191817Z AUTO 19011KT 9999 -RA FEW038 SCT050 SCT065 BKN085 16/16 A2955 RMK AO2 RAB17 SLP010
EGUN 191812Z AUTO 18012KT 9999 -RA FEW016 SCT041 SCT049 BKN060 16/16 A2955 RMK AO2 RAB12 SLP010 $
EGVA 191802Z AUTO 15008KT 9999 BKN019 14/12 A2947 RMK AO2 RAE01 CIG 019V041 BKN V FEW SLP982 $
EGVN 191750Z 14007KT 7000 -RA BKN015 BKN080 14/13 Q0998 TEMPO 4000
EHAM 191755Z 13009KT 9999 FEW045 17/14 Q1007 NOSIG
EHBK 191755Z AUTO 15009KT 9999 NSC 18/13 Q1009 NOSIG
EHEH 191755Z AUTO 16006KT 100V190 9999 FEW041 BKN056 BKN065 20/14 Q1008 BLU 17009KT CAVOK
EICK 191800Z 32025G39KT 9999 -RA BKN012 BKN060 10/09 Q0993 BECMG BKN020
EIDW 191800Z 12014KT 5000 RADZ BKN004 BKN008 13/12 Q0992 NOSIG
EINN 191800Z 30015KT 8000 RA FEW010 SCT025 BKN050 11/10 Q0995 TEMPO 4000 BKN007
EKBI 191820Z AUTO 11007KT 9999NDV FEW008/// BKN023/// BKN160/// 12/11 Q1013
EKCH 191820Z 11012KT 9999 FEW009 BKN012 12/10 Q1016 TEMPO BKN009
EKYT 191820Z AUTO 12015KT 9999NDV -RA FEW006/// SCT010/// BKN013/// BKN025/// 13/12 Q1014
ELLX 191750Z 17008KT CAVOK 17/10 Q1011 NOSIG
ENBO 191750Z 16006KT 9999 FEW015 SCT040 05/04 Q1021 BECMG 09010KT
ENBR 191750Z 09007KT 9999 SCT050 BKN090 12/01 Q1011 NOSIG RMK WIND 1200FT 10010KT
ENGM 191750Z 35001KT CAVOK 02/01 Q1019 NOSIG
ENTC 191750Z 07004KT 9999 FEW040 02/M00 Q1019 NOSIG RMK WIND 2600FT 01008KT
ENVA 191820Z 11006KT CAVOK 02/00 Q1018 NOSIG RMK WIND 670FT 11007KT
ENZV 191820Z 14007KT 9999 -RA BKN044 11/07 Q1011 TEMPO 15015G25KT RA
EPGD 191800Z 09007KT 9999 BKN005 11/10 Q1018
EPKK 191800Z VRB01KT 6000 BKN052 12/10 Q1017
EPKT 191800Z VRB01KT 3800 BR NSC 09/09 Q1017
EPMO 191800Z 05007KT CAVOK 10/10 Q1017
EPPO 191800Z 09006KT 6000 BKN014 13/11 Q1016
EPWA 191800Z 06007KT 9999 BKN023 13/10 Q1017 NOSIG
EPWR 191800Z 11005KT 0200 R29/0400N FG OVC001 12/12 Q1016
ESGG 191820Z 12008KT 9999 FEW042 BKN078 08/03 Q1018
ESMS 191820Z 10013KT 9999 OVC007 11/10 Q1017
ESPA 191820Z 00000KT CAVOK 02/01 Q1018
ESSA 191820Z VRB01KT CAVOK 01/01 Q1021 NOSIG
ETAR 191756Z 00000KT 9999 FEW150 SCT200 12/11 A2989 RMK AO2A SLP128 T01240106 10230 20120 53006 $
EVRA 191820Z 00000KT 2200 BCFG BR NSC 02/02 Q1021 R36/090095 TEMPO 1000 BR
EYVI 191820Z VRB01KT CAVOK 05/04 Q1020 NOSIG
FACT 191800Z 21004KT CAVOK 14/06 Q1021 NOSIG
FAGG 191800Z 22006KT 9999 SCT022 BKN030 14/10 Q1019
FALE 191800Z 18009KT 9999 SCT034 20/11 Q1018 NOSIG
FIMR 191800Z 07010KT 9999 SCT017 24/20 Q1021
GCLP 191800Z 02016KT 9999 FEW022 24/19 Q1020 NOSIG
GCTS 191800Z 12006KT 9999 FEW025 BKN037 24/19 Q1021 NOSIG
GCXO 191800Z 30011KT 9999 VCFG FEW001 SCT008 BKN013 19/17 Q1023 NOSIG
GMMN 191800Z 32010KT 9999 BKN016 22/18 Q1020 NOSIG
GOOY 191800Z 21005KT 170V240 CAVOK 31/26 Q1011 NOSIG
GQNO 191800Z 05004KT 8000 NSC 34/14 Q1011 NOSIG
HAAB 191700Z 07008KT 9999 BKN024 BKN070 16/09 Q1027
HECA 191800Z 36013KT CAVOK 25/15 Q1017 NOSIG
HEGN 191800Z 32003KT CAVOK 26/13 Q1013 NOSIG
HELX 191800Z 00000KT CAVOK 27/11 Q1012 NOSIG
HKJK 191800Z 08009KT 9999 BKN025 22/14 Q1021
HKMO 191800Z 11004KT 9999 FEW024 27/23 Q1012 NOSIG
HSSS 191800Z 32009KT CAVOK 34/01 Q1011 NOSIG
KABQ 191752Z VRB04KT 10SM FEW060 FEW200 BKN240 18/05 A3016 RMK AO2 SLP156 T01780050 10183 20106 58003
KADW 191756Z AUTO 22006KT 10SM CLR 22/07 A3020 RMK AO2 SLP233 T02160070 10217 20137 58022 $
KAFW 191753Z 14007KT 10SM FEW200 SCT300 26/13 A3015 RMK AO2 SLP201 T02560133 10261 20117 58008 $
KAGS 191753Z 07004KT 10SM CLR 25/12 A3025 RMK AO2 SLP242 T02500117 10250 20083 58024 $
KAMA 191753Z 17015KT 10SM CLR 22/09 A3010 RMK AO2 SLP157 T02170089 10217 20100 58005
KATL 191752Z 08004KT 10SM FEW250 22/05 A3029 RMK AO2 SLP253 T02170050 10217 20106 58016
KAUS 191753Z VRB04KT 10SM SCT036 SCT200 BKN300 26/17 A3013 RMK AO2 SLP197 T02560172 10261 20111 58008
KAVL 191754Z 34008KT 10SM CLR 22/01 A3031 RMK AO2 SLP250 T02170011 10217 20033 58020
KBAB 191758Z 16016KT 10SM SCT090 18/10 A2991 RMK AO2A SLP131 T01830098 10186 20120 50000 $
KBAD 191756Z AUTO 14005KT 10SM CLR 25/13 A3019 RMK AO2 SLP225 T02520131 10252 20084 57014
KBDL 191751Z 19014KT 10SM FEW250 23/05 A3010 RMK AO2 SLP194 T02280050 10228 20067 57031
KBFI 191753Z 15011KT 10SM FEW049 BKN060 OVC075 12/12 A2956 RMK AO2 RAB19E33 SLP009 P0001 60012 T01220117 10122 20111 58006 $
KBGR 191753Z 17012KT 10SM SCT200 20/11 A3001 RMK AO2 SLP160 T02000111 10206 20094 58037
KBHM 191753Z 08004KT 10SM FEW250 23/08 A3029 RMK AO2 SLP255 T02330083 10233 20100 58017
KBIL 191753Z 25008KT 10SM FEW110 FEW200 23/M01 A2977 RMK AO2 SLP055 T02281011 10228 20111 58011
KBLV 191756Z AUTO 26003KT 10SM CLR 25/09 M RMK AO2 SLPNO T02490092 10251 20083 $
KBMI 191756Z 00000KT 10SM R20/4000VP6000FT CLR 22/11 A3019 RMK AO2 SLP242 T02220111 10222 20106 58002
KBNA 191753Z 00000KT 10SM FEW200 23/07 A3029 RMK AO2 SLP253 T02330067 10233 20067 58016
KBOI 191753Z 11009KT 10SM CLR 20/M03 A2983 RMK AO2 SLP082 T02001033 10200 20083 58004
KBOS 191754Z 20013KT 10SM FEW250 23/08 A3008 RMK AO2 SLP185 T02330078 10233 20122 58035
KBTR 191753Z 04006KT 10SM SCT031 27/17 A3018 RMK AO2 SLP218 T02720167 10272 20128 58012
KBUF 191754Z 23025G34KT 10SM FEW028 FEW160 FEW240 FEW280 18/12 A3003 RMK AO2 PK WND 21035/1734 SLP169 T01780117 10183 20128 58006
KBWI 191754Z VRB06KT 10SM FEW250 21/06 A3020 RMK AO2 SLP226 T02110061 10217 20067 58023
KCAE 191756Z 00000KT 10SM FEW220 24/13 A3025 RMK AO2 SLP242 T02440128 10244 20061 58023
KCBM 191756Z AUTO 17003KT 10SM CLR 23/13 A3025 RMK AO2 SLP246 T02290125 10231 20052 58014 TSNO $
KCHA 191753Z COR 00000KT 10SM FEW250 21/06 A3031 RMK AO2 SLP259 T02110061 10217 20072 58018
KCHS 191756Z 02007KT 350V060 10SM SCT250 27/15 A3022 RMK AO2 SLP231 T02670150 10267 20139 58016
KCID 191752Z 13009KT 10SM CLR 21/M01 A3015 RMK AO2 SLP208 T02061006 10206 20072 58002
KCLE 191751Z 26012KT 10SM SCT250 22/10 A3015 RMK AO2 SLP208 T02220100 10222 20122 58006
KCLT 191752Z VRB03KT 10SM FEW250 22/07 A3028 RMK AO2 SLP249 T02220067 10222 20050 58023
KCMH 191751Z 20010G17KT 10SM FEW250 22/10 A3019 RMK AO2 SLP222 T02170100 10217 20089 58014
KCOS 191754Z 16010KT 10SM FEW200 SCT250 21/M03 A3012 RMK AO2 SLP147 T02061028 10206 20039 58009
KCPR 191753Z 22019KT 10SM CLR 19/M08 A2998 RMK AO2 PK WND 21026/1734 SLP106 T01891083 10189 20039 58008
KCRP 191751Z 07011KT 10SM FEW031 SCT060 OVC070 28/21 A3007 RMK AO2 SLP182 T02780206 10283 20183 58002
KCRW 191754Z 25006KT 10SM CLR 21/06 A3026 RMK AO2 SLP245 T02110061 10217 20039 58018
KCVG 191752Z 22010G15KT 10SM SCT300 21/11 A3022 RMK AO2 SLP228 T02110111 10211 20083 58013
KCVS 191758Z 21006KT 10SM FEW170 SCT190 20/11 A3011 RMK AO2A SLPNO ALSTG ESTMD T01990109 10199 20086 $
KDAB 191753Z 05012G21KT 10SM FEW026 SCT070 29/23 A3010 RMK AO2 SLP192 60001 T02890233 10294 20239 58009 $
KDAL 191753Z 13009KT 8SM FEW250 BKN300 25/13 A3016 RMK AO2 SLP207 T02500128 10250 20156 58007
KDAY 191756Z 23010KT 10SM SCT250 22/11 A3020 RMK AO2 SLP225 T02170111 10217 20094 57007
KDBQ 191753Z 15007KT 10SM CLR 19/M01 A3017 RMK AO2 SLP216 T01891011 10189 20056 58002
KDCA 191752Z 17009KT 10SM CLR 21/09 A3021 RMK AO2 SLP231 T02060089 10211 20100 58024
KDEN 191753Z 20004KT 10SM FEW120 BKN220 21/M07 A3004 RMK AO2 SLP115 T02111067 10211 20056 58012
KDFW 191753Z 19009KT 8SM FEW240 BKN300 26/13 A3014 RMK AO2 SLP200 T02610128 10261 20150 58007
KDLF 191755Z 14010KT 10SM SCT020 BKN250 22/17 A3009 RMK AO2A SCT V FEW SLP183 T02220171 10225 20131 58004
KDLH 191755Z 22012G16KT 10SM CLR 17/M01 A2999 RMK AO2 SLP161 T01671006 10167 20039 58004
KDOV 191758Z AUTO 22006KT 10SM CLR 22/17 A3019 RMK AO2 SLP226 T02170172 10217 20091 $
KDSM 191754Z 11008KT 10SM FEW250 BKN300 22/06 A3011 RMK AO2 SLP191 T02220061 10222 20106 58009
KDTW 191753Z 24013KT 10SM BKN250 21/07 A3011 RMK AO2 SLP195 T02110072 10211 20111 58002 VISNO 3L $
KDYS 191756Z 15018G21KT 10SM SCT250 24/13 A3011 RMK AO2A SLP161 T02440130 10245 20149 58007 $
KEDW 191758Z 23012KT 20SM FEW250 25/M07 A2991 RMK AO2A SLP111 T02481066 10248 20117 50002
KEND 191756Z 18013KT 10SM BKN190 25/11 A3010 RMK AO2A SLP187 T02470109 10247 20125 58006
KERI 191751Z 25011G19KT 10SM CLR 18/11 A3010 RMK AO2 SLP192 T01830111 10200 20122 58003
KEWR 191751Z 24012KT 10SM FEW250 23/04 A3016 RMK AO2 SLP211 T02280044 10228 20106 58027
KFFO 191758Z AUTO 21010KT 10SM CLR 21/10 A3020 RMK AO2 SLPNO T02100096 10210 20075
KFLL 191753Z 07010KT 10SM SCT025 30/24 A2999 RMK AO2 SLP154 T03000244 10306 20239 58014
KFSM 191753Z 00000KT 10SM CLR 26/12 A3019 RMK AO2 SLP219 T02560122 10256 20117 58014
KFTW 191753Z 17009KT 10SM CLR 26/14 A3015 RMK AO2 SLP201 T02610144 10261 20150 58009
KFWA 191754Z 29006KT 10SM SCT250 21/10 A3017 RMK AO2 SLP217 T02110100 10211 20094 50000
KGEG 191753Z 19007KT 10SM OVC065 13/04 A2963 RMK AO2 SLP030 SHRA DSNT N 60000 T01330044 10139 20122 53001
KGPT 191753Z 08008KT 10SM SCT032 27/18 A3018 RMK AO2 SLP218 T02720183 10278 20150 58009
KGRB 191753Z 25008KT 10SM CLR 18/M01 A3011 RMK AO2 SLP195 T01831011 10183 20078 58001
KGSB 191756Z COR 26004KT 10SM CLR 26/12 A3021 RMK AO2A SLP233 T02590120 10260 20104 57027 $ COR 1823
KGSO 191754Z 00000KT 10SM FEW250 22/06 A3026 RMK AO2 SLP242 T02220056 10222 20056 58021
KGSP 191753Z 00000KT 10SM CLR 21/04 A3029 RMK AO2 SLP251 T02060039 10217 20061 58022
KGUS 191756Z AUTO 28007KT 9SM CLR 21/11 A3018 RMK AO2 SLP221 T02080109 10208 20096 58001 $
KHIB 191753Z AUTO 22007KT 190V250 10SM CLR 16/M02 A2996 RMK AO2 SLP151 T01611022 10161 20017 58005
KHMN 191758Z AUTO 24007KT 10SM FEW200 21/10 A3011 RMK AO2 SLP139 T02130098 10216 20142 58001 $
KHOU 191753Z 09008KT 10SM SCT035 SCT250 28/18 A3012 RMK AO2 SLP204 T02830178 10289 20194 58007
KHSV 191753Z VRB03KT 10SM CLR 23/09 A3028 RMK AO2 SLP250 T02280094 10233 20089 58016
KHTS 191751Z VRB03KT 10SM CLR 21/08 A3026 RMK AO2 SLP243 T02060078 10211 20061 58017
KIAD 191752Z VRB03KT 10SM CLR 21/08 A3021 RMK AO2 SLP229 T02110078 10217 20039 58022
KIAH 191753Z 09008KT 10SM SCT037 BKN250 28/18 A3012 RMK AO2 SLP201 T02780178 10283 20178 58009
KICT 191753Z 20012KT 10SM SCT250 23/10 A3009 RMK AO2 SLP183 T02330100 10233 20100 58005
KIND 191754Z 20008KT 10SM FEW300 22/11 A3019 RMK AO2 SLP221 T02170106 10217 20089 58011
KJAN 191754Z VRB06KT 10SM CLR 26/13 A3023 RMK AO2 SLP233 T02610128 10261 20089 58012
KJAX 191756Z 03015KT 10SM FEW020 BKN032 BKN070 27/21 A3017 RMK AO2 SLP217 T02720206 10272 20189 58007
KJFK 191751Z 20010KT 10SM FEW250 21/08 A3018 RMK AO2 SLP220 T02060078 10206 20133 58026
KJLN 191753Z 21011KT 10SM CLR 24/12 A3017 RMK AO2 SLP210 T02440122 10244 20111 58005 $
KLAS 191756Z 01003KT 10SM FEW110 SCT220 27/M07 A2988 RMK AO2 SLP098 T02671067 10267 20200 58002
KLAX 191753Z 24005KT 9SM SCT022 23/17 A2992 RMK AO2 SLP130 SCT V BKN T02280172 10228 20183 50003
KLBB 191753Z 20011KT 10SM SCT250 BKN300 23/08 A3010 RMK AO2 SLP157 BKN LYR THN T02330083 10233 20100 58005
KLCK 191815Z AUTO 23010G14KT 10SM CLR 22/10 A3019 RMK AO2 T02170097 PWINO
KLEX 191754Z 23009KT 10SM CLR 21/10 A3027 RMK AO2 SLP246 T02110100 10211 20094 58013 $
KLFI 191758Z 27009KT 10SM SKC 22/13 A3023 RMK AO2A SLPNO
KLFT 191753Z COR 07004KT 10SM SCT050 27/17 A3016 RMK AO2 SLP214 T02720172 10272 20144 58010
KLGA 191751Z 23014KT 10SM FEW250 21/04 A3015 RMK AO2 SLP210 T02110039 10217 20144 58027
KLIT 191753Z 00000KT 10SM BKN250 25/13 A3022 RMK AO2 SLP234 T02500128 10250 20083 58013
KLTS 191756Z AUTO 16013KT 10SM BKN220 24/10 A3011 RMK AO2 SLP188 T02410096 10241 20082 58010 $
KLUF 191758Z 00000KT 10SM CLR 30/05 A2982 RMK AO2A SLP086 T02960049 10296 20206 58001 $
KMBS 191753Z 27016G23KT 10SM CLR 19/M02 A3009 RMK AO2 SLP187 T01941022 10194 20122 50001
KMCF 191758Z COR VRB06KT 10SM SCT032 30/20 A3007 RMK A02A SLP181 WND DATA ESTMD AND SLP/ALTSG ESTMD $ COR 1805
KMCI 191753Z 19007KT 10SM CLR 23/11 A3011 RMK AO2 SLP189 T02280111 10233 20083 58005
KMCO 191753Z 06016KT 10SM FEW033 SCT090 29/21 A3007 RMK AO2 SLP179 60001 T02940206 10294 20211 58014 $
KMDW 191753Z 02003KT 10SM SCT250 20/M06 A3018 RMK AO2 SLP218 T02001056 10206 20117 50001
KMEM 191754Z 00000KT 10SM FEW150 SCT250 24/11 A3025 RMK AO2 SLP242 T02390106 10239 20094 58010
KMGE 191756Z 00000KT 10SM FEW250 22/06 A3028 RMK AO2A SLP252 T02160059 10216 20068 57017 $
KMGM 191753Z 04008KT 10SM CLR 25/12 A3025 RMK AO2 SLP243 T02500122 10250 20111 58016
KMHT 191753Z 20013KT 10SM FEW250 23/04 A3004 RMK AO2 SLP184 T02330039 10233 20061 58034
KMIA 191801Z 07007KT 10SM BKN030CB BKN060 31/23 A2998 RMK AO2 CB W MOV STNRY T03110228
KMKE 191752Z VRB04KT 10SM BKN250 19/M02 A3018 RMK AO2 SLP217 T01941017 10194 20117 50005
KMLI 191752Z 08008KT 10SM CLR 22/03 A3016 RMK AO2 SLP212 T02170028 10222 20067 58003
KMLU 191753Z 04005KT 10SM CLR 25/13 A3022 RMK AO2 SLP233 T02500128 10250 20083 58012
KMOB 191756Z VRB05KT 10SM FEW030 FEW250 26/16 A3021 RMK AO2 SLP228 T02610161 10267 20144 58010
KMSN 191753Z 17004KT 10SM BKN250 18/01 A3016 RMK AO2 SLP212 T01780011 10189 20056 50001
KMSP 191753Z 18011KT 10SM SCT300 19/01 A3004 RMK AO2 SLP173 T01940011 10194 20061 58012
KMSY 191753Z 05010KT 10SM FEW035 SCT045 BKN250 26/21 A3017 RMK AO2 SLP218 T02610206 10267 20194 58009
KMUO 191758Z 11015KT 10SM CLR 17/M05 A2984 RMK AO2A SLP096 T01741052 10174 20059 58009
KOAK 191831Z 21004KT 10SM FEW015 OVC033 15/12 A3001 RMK AO2 T01500122
KOKC 191752Z 19013KT 10SM BKN200 22/11 A3014 RMK AO2 SLP199 T02170106 10217 20111 58003
KONT 191753Z 00000KT 5SM HZ FEW250 21/14 A2993 RMK AO2 SLP123 T02110139 10211 20150 50003
KORD 191751Z 03005KT 10SM BKN250 21/M04 A3018 RMK AO2 SLP217 T02061039 10206 20106 50001
KORF 191751Z 04006KT 10SM CLR 21/13 A3023 RMK AO2 SLP234 T02110133 10228 20117 58023
KPAM 191756Z AUTO 04008KT 10SM CLR 27/16 A3017 RMK AO2 SLP220 T02730159 10274 20164 58016
KPBI 191753Z 06010KT 10SM SCT025 SCT032 BKN047 29/23 A3001 RMK AO2 SLP163 60039 T02890233 10294 20233 58015 $
KPDX 191835Z 18013G19KT 10SM BKN014 OVC045 13/11 A2963 RMK AO2 RAE30 P0001 T01280111
KPHF 191754Z 22007KT 10SM CLR 22/12 A3023 RMK AO2 SLP237 T02220122 10222 20089 58024
KPHL 191754Z 23010KT 10SM FEW180 21/07 A3019 RMK AO2 SLP224 T02110067 10211 20106 58026
KPHX 191751Z 16006KT 10SM FEW150 FEW180 30/06 A2983 RMK AO2 SLP084 T03000056 10300 20233 50002
KPIA 191754Z 10003KT 10SM CLR 21/11 A3018 RMK AO2 SLP218 T02110111 10211 20089 50001
KPIT 191751Z 25012KT 10SM BKN250 19/08 A3019 RMK AO2 SLP230 T01940078 10194 20056 58013
KPWM 191751Z 17012KT 10SM FEW250 18/11 A3004 RMK AO2 SLP171 T01830111 10189 20056 58035
KRDU 191751Z 23006KT 10SM FEW042 FEW250 23/12 A3026 RMK AO2 SLP244 T02280117 10228 20061 58026
KRFD 191754Z 00000KT 10SM BKN250 21/M02 A3018 RMK AO2 SLP220 T02061017 10206 20061 58003
KRIC 191754Z 25004KT 10SM CLR 22/06 A3023 RMK AO2 SLP240 T02220061 10222 20067 58026
KRND 191838Z AUTO 15008KT 10SM SCT036 27/17 A3010 RMK AO2 SLP187
KRNO 191755Z 10003KT 10SM FEW040 FEW100 FEW160 18/M08 A2996 RMK AO2 SLP112 T01831078 10189 20028 58008
KROA 191754Z VRB04KT 10SM CLR 22/07 A3026 RMK AO2 SLP244 T02170067 10222 20056 58021
KROC 191754Z 25016G23KT 10SM FEW140 BKN210 22/09 A3000 RMK AO2 PK WND 26027/1659 SLP160 T02220094 10222 20117 58017
KRST 191754Z 18013KT 10SM R31/0100VP6000FT CLR 19/01 A3010 RMK AO2 SLP195 T01940011 10200 20028 58009
KRSW 191753Z 07010KT 10SM FEW036 SCT045 BKN060 31/22 A3000 RMK AO2 SLP157 T03060222 10311 20222 58018
KSAN 191832Z 22004KT 9SM BKN020 BKN250 21/16 A2995 RMK AO2 T02060161
KSAT 191751Z 13011KT 10SM SCT029 BKN250 26/17 A3013 RMK AO2 SLP188 T02560172 10261 20144 58004 $
KSAV 191753Z VRB04KT 10SM FEW250 26/15 A3022 RMK AO2 SLP233 T02610150 10267 20133 58016 $
KSBN 191754Z 29009KT 10SM CLR 19/02 A3018 RMK AO2 SLP219 T01890017 10189 20094 50000
KSDF 191756Z 20010KT 10SM FEW240 23/09 A3024 RMK AO2 SLP238 T02280094 10228 20089 58013
KSEA 191753Z 16008KT 9SM FEW014 BKN032 OVC045 12/11 A2956 RMK AO2 RAB08E52 SLP016 P0000 60032 T01170106 10117 20106 58004
KSFB 191753Z 06016KT 10SM FEW039 FEW060 30/20 A3008 RMK AO2 SLP185 60000 T03000200 10300 20228 58011
KSFO 191756Z 21005KT 10SM BKN014 BKN180 16/11 A3000 RMK AO2 SLP160 T01560111 10156 20128 51004
KSGF 191752Z VRB06KT 10SM CLR 24/11 A3019 RMK AO2 SLP215 T02440111 10244 20094 58005
KSHV 191756Z 11006KT 10SM FEW045 BKN280 26/13 A3018 RMK AO2 SLP219 T02560133 10256 20094 58014
KSJC 191753Z 00000KT 10SM FEW012 SCT030 BKN045 16/11 A3000 RMK AO2 SLP159 T01610111 10161 20128 51001
KSKA 191758Z 18009KT 10SM OVC065 13/05 A2964 RMK AO2A SLPNO ALSTG ESTMD T01270054 10129 20117 CHINO RWY05 $
KSLC 191754Z 30007KT 10SM FEW170 SCT240 18/01 A2998 RMK AO2 SLP120 ACSL DSNT E-SE T01830011 10194 20061 58008 $
KSMF 191753Z 18013KT 10SM SCT060 BKN070 BKN090 16/11 A2993 RMK AO2 SLP135 T01610111 10172 20117 53004
KSNA 191753Z 24003KT 10SM SCT025 BKN240 22/16 A2992 RMK AO2 SLP130 T02220156 10228 20194 50003
KSPI 191752Z VRB04KT 10SM CLR 24/13 A3017 RMK AO2 SLP214 T02390128 10239 20122 58004
KSPS 191752Z 19010KT 10SM BKN250 26/12 A3012 RMK AO2 SLP189 60000 T02560122 10256 20094 58012
KSRQ 191753Z 06010G17KT 10SM CLR 30/21 A3003 RMK AO2 SLP168 T03000206 10306 20211 58017
KSSC 191758Z 11003KT 10SM BKN200 23/12 A3022 RMK AO2A SLP234 T02300119 10235 20101 58023 $
KSTL 191751Z 24006KT 10SM FEW250 24/10 A3019 RMK AO2 SLP216 T02390100 10244 20128 58002
KSUS 191754Z VRB05KT 10SM CLR 24/11 A3017 RMK AO2 SLP212 T02440111 10244 20072 58006
KSUU 191758Z AUTO 24021KT 10SM BKN075 16/11 A2993 RMK AO2 PK WND 24026/30 SLP142 T01630108 10165 20122 50007 $
KSUX 191752Z 16013KT 10SM CLR 21/09 A3005 RMK AO2 SLP175 T02110094 10211 20022 58008
KSYR 191654Z 21015G22KT 10SM SCT140 BKN200 19/06 A3005 RMK AO2 SLP171 T01940061
KSZL 191755Z 21010KT 10SM CLR 24/11 A3010 RMK SLP192 T02400110 10241 20097 58004
KTCM 191835Z 16009KT 6SM -SHRA BR FEW040 BKN055 12/12 A2956 RMK AO2A WND DATA ESTMD ALSTG ESTMD $
KTIK 191756Z AUTO 19012KT 10SM CLR 22/11 A3014 RMK AO2 SLP206 T02220110 10224 20127 58004 $
KTLH 191753Z 05011KT 10SM FEW040 FEW250 27/16 A3018 RMK AO2 SLP218 T02720156 10272 20167 58017
KTOL 191752Z 26009KT 10SM CLR 21/11 A3014 RMK AO2 SLP204 T02060106 10206 20117 58002
KTPA 191753Z 07006KT 10SM SCT035 31/20 A3007 RMK AO2 SLP181 CU BLDG ALQDS T03060200 10311 20217 58016 $
KTRI 191753Z 33006KT 10SM CLR 20/06 A3032 RMK AO2 SLP253 T02000056 10200 20039 58016
KTUL 191753Z 17008KT 10SM OVC250 23/13 A3014 RMK AO2 SLP201 T02330128 10233 20100 58008
KTUS 191753Z 19004KT 10SM CLR 29/03 A2996 RMK AO2 SLP100 T02890033 10294 20194 58001
KTYS 191753Z 12003KT 10SM CLR 19/09 A3031 RMK AO2 SLP259 T01940089 10194 20061 58017 $
KVBG 191755Z 35008KT 10SM FEW005 FEW008 FEW012 SCT190 SCT240 15/12 A3001 RMK AO2A CIG 004V008 OVR RWYS 30/12 SLP162 T01500121 10150 20101 50007
KVPS 191755Z 03009KT 10SM SCT045 SCT250 27/15 A3018 RMK AO2A SLP226 T02730146 10273 20147 58017 $
KWRB 191756Z AUTO 00000KT 10SM CLR 24/13 A3024 RMK AO2 SLP242 T02400132 10242 20078 58020 $
LATI 191820Z 00000KT 5000 2000N BCFG NSC 16/15 Q1019 TEMPO 3000
LBBG 191830Z 05008KT CAVOK 14/13 Q1017 NOSIG
LBSF 191830Z 18002KT CAVOK 14/07 Q1019 NOSIG
LBWN 191830Z 07004KT 9999 FEW007 14/14 Q1017 NOSIG
LCLK 191830Z 31004KT CAVOK 20/12 Q1015 NOSIG
LCPH 191830Z 02003KT CAVOK 17/09 Q1016
LCRA 191750Z 29004KT CAVOK 22/16 Q1015 NOSIG
LDZA 191830Z 00000KT CAVOK 13/09 Q1016 NOSIG
LEAL 191830Z 29008KT 250V330 9999 FEW015 20/08 Q1012 NOSIG
LEBL 191830Z 10008KT 9999 FEW012 18/16 Q1008 NOSIG
LEMD 191830Z 26006KT CAVOK 16/06 Q1015 NOSIG
LEMG 191830Z VRB02KT 9999 FEW040 20/13 Q1016 NOSIG
LEPA 191830Z VRB01KT 9999 FEW022 16/13 Q1010 NOSIG
LEST 191843Z 24004KT 200V290 0500 R17/P2000 R35/1700D FG VV001 15/15 Q1013 NOSIG
LFBD 191830Z AUTO 18005KT CAVOK 16/13 Q1012 NOSIG
LFBO 191830Z AUTO 13003KT 100V160 CAVOK 16/13 Q1013
LFML 191830Z AUTO 07010KT CAVOK 21/11 Q1013 NOSIG
LFMN 191830Z 08021KT 9999 FEW027 BKN200 20/15 Q1016 NOSIG
LFOA 191830Z AUTO 22006KT 9999 FEW049 BKN058 BKN078 17/13 Q1011 NOSIG
LFPG 191830Z 19009KT 120V210 9999 SCT036 SCT046 BKN063 18/12 Q1008
LFPO 191830Z 20007KT 9999 SCT040 BKN053 18/12 Q1008 NOSIG
LFSB 191830Z VRB02KT CAVOK 13/08 Q1013 NOSIG
LGAV 191820Z 28003KT 9999 FEW025 18/11 Q1019 NOSIG
LGIR 191820Z 19003KT 9999 FEW025 19/16 Q1017 NOSIG
LGTS 191820Z 11004KT CAVOK 18/06 Q1017 NOSIG
LHBP 191830Z 29005KT 6000 NSC 09/09 Q1017 NOSIG
LIBD 191820Z VRB01KT 8000 FEW010 18/18 Q1017
LICC 191820Z VRB02KT 9999 FEW070 21/17 Q1017
LICJ 191820Z 20001KT CAVOK 21/14 Q1016
LIEE 191820Z 13013KT CAVOK 22/16 Q1013
LIMC 191820Z VRB02KT 3000 BR NSC 14/11 Q1019 NOSIG
LIME 191820Z 09003KT 2000 BR NSC 13/12 Q1019 NOSIG
LIMF 191820Z 30004KT 270V330 4000 BR NSC 15/10 Q1018
LIMJ 191820Z 02004KT CAVOK 17/13 Q1017
LIML 191820Z 05003KT 1500 R36/P2000 BR SCT004 12/12 Q1019 NOSIG
LIPE 191820Z 00000KT 2500 BR NSC 13/12 Q1018
LIPH 191820Z 24003KT 3000 BR MIFG BKN010 12/12 Q1019
LIPX 191820Z VRB01KT 2000 BR MIFG NSC 10/09 Q1019
LIPZ 191820Z 30003KT 280V360 2500 BR OVC015 14/12 Q1019 NOSIG
LIRA 191820Z 21004KT CAVOK 17/13 Q1018
LIRF 191820Z 03004KT CAVOK 16/13 Q1018 NOSIG
LIRN 191820Z VRB02KT 8000 NSC 18/15 Q1018 NOSIG
LIRP 191815Z 04004KT CAVOK 15/13 Q1017 NOSIG
LJLJ 191830Z 13001KT CAVOK 08/07 Q1018 NOSIG
LKPR 191830Z 07004KT 3900 BR BKN003 OVC004 11/10 Q1017 NOSIG
LLBG 191820Z 18004KT 9999 SCT050 24/17 Q1014 NOSIG
LLOV 191750Z 30004KT CAVOK 25/09 Q1016
LMML 191815Z 15004KT 9999 FEW018 21/19 Q1018 NOSIG
LOWW 191820Z 20004KT 7000 SKC 10/09 Q1017 BECMG 4000 BR
LPFR 191830Z 30010KT 9999 FEW030 21/14 Q1017
LPPD 191830Z 24017KT 9999 SCT013 22/19 Q1019
LPPR 191830Z 19011KT 6000 -RADZ OVC003 17/17 Q1014
LPPT 191830Z 23008KT 6000 -DZRA FEW006 BKN014 19/17 Q1017
LQSA 191830Z VRB01KT CAVOK 12/08 Q1019 NOSIG
LROP 191830Z 24005KT CAVOK 13/12 Q1016 NOSIG
LSGG 191820Z VRB01KT CAVOK 13/08 Q1014 NOSIG
LSZH 191820Z 29004KT CAVOK 11/09 Q1013 NOSIG
LTAC 191820Z VRB02KT CAVOK 10/M00 Q1021 NOSIG RMK RWY21L VRB02KT RWY03L VRB01KT RWY21R 00000KT
LTAF 191820Z 05002KT CAVOK 19/08 Q1015 NOSIG RMK RWY23 00000KT
LTAI 191820Z 35004KT CAVOK 18/12 Q1016 NOSIG RMK RWY18C 34005KT RWY36R 36005KT RWY18L 02003KT
LTAJ 191820Z 00000KT CAVOK 11/M02 Q1019 NOSIG RMK RWY10 00000KT
LTBA 191820Z 34006KT CAVOK 17/15 Q1018 NOSIG RMK RWY17L 35004KT RWY05 35004KT 320V020 RWY23 02003KT 340V040
LTBJ 191820Z 11002KT CAVOK 17/10 Q1018 NOSIG RMK RWY16 08003KT
LTBS 191820Z 36006KT CAVOK 18/15 Q1017 NOSIG RMK RWY19 34006KT
LTCE 191820Z VRB02KT CAVOK 03/M01 Q1024 NOSIG RMK RWY08R VRB01KT RWY26R 16002KT RWY08L 00000KT
LTCG 191820Z VRB02KT CAVOK 16/11 Q1019 NOSIG RMK RWY29 VRB02KT
LTFC 191820Z VRB04KT CAVOK 14/M02 Q1020 RMK RWY23 01004KT
LTFE 191820Z 16002KT CAVOK 17/11 Q1018 NOSIG RMK RWY10 00000KT
LTFJ 191820Z 05007KT CAVOK 16/14 Q1018 NOSIG RMK RWY24 04004KT 320V080
LYBE 191830Z 22002KT CAVOK 18/04 Q1017 NOSIG
LYPG 191830Z 23002KT CAVOK 17/12 Q1018 NOSIG
LZIB 191830Z 21005KT CAVOK 12/10 Q1017
MDPC 191800Z 11010KT 9999 FEW025 30/24 Q1015
MDSD 191800Z 13011KT 5000 DU FEW018CB SCT020 32/24 Q1013 CB/SE/S/SW
MKJP 191830Z 14025KT 5000 3000NE SHRA SCT018 BKN020CB 28/26 Q1011
MMAA 191742Z 24006KT 7SM SKC 31/26 A2983 RMK SLP093 57021 956 HZY
MMGL 191750Z 36004KT 8SM FEW025TCU 25/12 A3021 RMK SLP108 57013 966 8/200
MMHO 191743Z 09006KT 8SM BKN200 33/05 A2987 RMK SLP109 52003 976 8/008 HZY
MMMX 191839Z 08005KT 6SM SKC 24/08 A3030 NOSIG RMK HZY ISOL MDT CU AC
MMMY 191745Z 07005KT 10SM SCT070 26/12 A3006 RMK SLP142 57047 993 8/030
MMPR 191741Z 23005KT 15SM SKC 31/24 A2986 RMK SLP108 52001 966 DSNTS CU 1-4 QUADS
MMSD 191747Z 12008KT 12SM SKC 36/13 A2986 RMK SLP098 58001 977
MMTJ 191748Z 0000KT 6SM BKN210 22/12 A2996 RMK SLP144 52003 959 8/008 HZY
MMUN 191846Z 11005KT 7SM BKN015CB BKN250 29/25 A2995 RMK 8/308 SC AC
MPTO 191800Z 18007KT 9000 SCT016TCU 31/26 Q1010 NOSIG
MSLP 191850Z 11004KT 050V160 9999 FEW040 35/24 Q1008 A2976 NOSIG
MUHA 191755Z 05008KT 9000 SCT030 30/24 Q1015
MUVR 191750Z 02009KT 360V060 9000 SCT020 30/23 Q1015
MWCR 191800Z 04009KT 9999 FEW018 31/27 Q1013
MYNN 191700Z 07007KT 9000 SCT018TCU BKN200 31/24 A3001 RMK TCU S-SW VCSH SE-SW
MZBZ 191800Z 11003KT 9999 VCSH BKN019 28/25 A2995 Q1014 NOSIG RMK CB TOPS-SE/NE/NW VCSH-SE
NCRG 191800Z 36006KT 5000SE 9999 -SHRA SCT005 BKN015 OVC040 25/24 Q1011
NZAA 191830Z AUTO 22012KT 9999 OVC020/// 14/11 Q1020 NOSIG
NZCH 191830Z AUTO 04004KT 8000 BKN008/// 08/08 Q1020 BECMG 9999
NZWN 191830Z AUTO 02008KT 9999 NCD 11/09 Q1021 NOSIG
OBBI 191830Z 33007KT CAVOK 31/24 Q1013 NOSIG
OEDF 191800Z 32007KT CAVOK 28/20 Q1013 NOSIG
OEDR 191800Z 01007KT CAVOK 30/21 Q1012 NOSIG
OEJN 191800Z 35007KT CAVOK 29/23 Q1010 NOSIG
OEMA 191800Z 00000KT CAVOK 30/M13 Q1016 NOSIG
OERK 191800Z 08005KT CAVOK 28/02 Q1019 NOSIG
OIIE 191800Z 02004KT CAVOK 12/M06 Q1023
OIII 191830Z 00000KT CAVOK 14/M02 Q1024 A3024 NOSIG
OIMM 191830Z 00000KT CAVOK 11/M01 Q1026 A3031
OISS 191830Z 28006KT CAVOK 21/M09 Q1022 A3019
OITT 191830Z 07006KT CAVOK 12/M04 Q1023 A3022
OJAI 191800Z 04005KT 5000 HZ NSC 21/M03 Q1018 NOSIG
OKBK 191800Z 29004KT CAVOK 26/01 Q1016 NOSIG
OLBA 191800Z 12004KT CAVOK 26/08 Q1015 NOSIG
OMAA 191800Z 34006KT 9000 NSC 31/22 Q1010 NOSIG
OMDB 191800Z 09005KT 050V120 CAVOK 33/15 Q1011 NOSIG
OMDW 191800Z 06006KT 8000 NSC 27/16 Q1012 NOSIG
OMSJ 191800Z 13002KT CAVOK 28/16 Q1011
OOMS 191750Z VRB03KT 6000 NSC 30/17 Q1011 NOSIG
OPRN 191800Z 05004KT 4000 HZ NSC 23/14 Q1011.6/29.87
OPST 191800Z 05004KT 4000 FU NSC 22/16 Q1010 NOSIG RH70
ORBI 191800Z 28001KT CAVOK 22/M00 Q1017 NOSIG
ORMM 191800Z 33008KT CAVOK 27/04 Q1015 NOSIG
OSDI 191800Z 02004KT CAVOK 18/M03 Q1018
OSLK 191800Z VRB03KT CAVOK 20/08 Q1015
PAFA 191753Z 00000KT 10SM BKN080 M08/M10 A2936 RMK AO2 SLP952 T10831100 11072 21100 51005
PANC 191753Z 36010G20KT 10SM FEW050 M02/M12 A2924 RMK AO2 SLP905 T10171117 11011 21022 53004
PGUM 191754Z 35003KT 10SM CLR 27/26 A2979 RMK AO2 SLP081 T02670261 10278 20267 56010
PHLI 191853Z 05020KT 10SM FEW025 SCT060 27/21 A3016 RMK AO2 PK WND 05028/1834 SLP210 T02720206
PHNL 191853Z 07019G32KT 10SM FEW026 SCT047 27/17 A3011 RMK AO2 PK WND 07032/1849 SLP195 T02720167
RCKH 191800Z 05004KT 7000 FEW012 SCT060 26/23 Q1006 NOSIG RMK A2973
RCTP 191848Z 03017KT 4000 -RA SCT005 BKN008 BKN015 23/22 Q1010 NOSIG RMK A2983
RJAA 191830Z 34012KT 3000 -RA BR FEW001 BKN003 BKN004 13/12 Q1015 NOSIG RMK 1ST001 5ST003 7ST004 A3000
RJBB 191840Z AUTO 06004KT 2000 -RA BR OVC017 16/15 Q1014 RMK A2997
RJCC 191830Z 33004KT 9999 FEW020 BKN050 05/04 Q1024 RMK 1CU020 6CU050 A3024
RJFF 191830Z AUTO VRB02KT 9999 FEW046 BKN060 OVC070 17/15 Q1014 RMK A2995
RJGG 191830Z 35008KT 8000 -RA FEW004 BKN008 BKN025 15/14 Q1014 TEMPO 4000 -RA BR
RJTT 191830Z 34015KT 7000 -RA FEW005 BKN007 BKN009 13/12 Q1016 TEMPO FEW003 BKN005
RJTY 191846Z AUTO 34006KT 9SM -DZ SCT018 12/11 A3008 RMK AO2 RAE01RAB21E42DZB42 SLP192 FZRANO $
RKJB 191826Z AUTO 06003KT 5000 BR NCD 12/11 Q1018
RKJK 191758Z AUTO 02005KT 10SM CLR 14/11 A3008 RMK AO2 SLP190 T01360112 10166 20127 55000 $
RKPC 191800Z 14004KT 9999 FEW035 16/11 Q1017 NOSIG
RKPK 191800Z 33007KT CAVOK 15/11 Q1017 NOSIG
RKSI 191830Z 12002KT CAVOK 13/08 Q1019 NOSIG
RKSO 191855Z 06002KT 7SM CLR 09/09 A3009 RMK AO2A SLPNO ALSTG DATA ESTMD WND DATA ESTMD TEMP DATA ESTMD $
RKSS 191800Z 33004KT CAVOK 10/07 Q1020 NOSIG
RKTU 191800Z 04003KT CAVOK 10/10 Q1019 NOSIG
ROAH 191830Z 02008KT 9999 VCSH FEW020 27/23 Q1005 RMK 2CU020 A2970
RODN 191856Z AUTO 03008KT 10SM BKN039 BKN047 BKN080 26/24 A2971 RMK AO2 SLP066 T02610237
RPLC 191800Z 27003KT 9999 SCT020 BKN100 25/22 Q1006 NOSIG RMK A2971
RPLL 191800Z 00000KT 9999 FEW023 BKN100 26/26 Q1005 NOSIG RMK A2968
RPMD 191800Z 18010KT 9999 FEW016 BKN290 28/23 Q1006 RMK A2971
RPVM 191800Z 24004KT 9999 -RA SCT020 OVC090 26/24 Q1006 NOSIG RMK A2971
SAEZ 191800Z 21005KT CAVOK 19/05 Q1017
SBBE 191800Z 34009KT 9999 BKN030 FEW035TCU 29/25 Q1009
SBBR 191800Z VRB04KT 9999 FEW045 SCT100 31/03 Q1017
SBCF 191800Z 05002KT CAVOK 31/05 Q1017
SBCT 191847Z 24008KT 9999 FEW013 BKN100 17/15 Q1017 RETS
SBFL 191800Z 36005KT CAVOK 25/19 Q1009
SBGL 191800Z 36009KT CAVOK 36/07 Q1010
SBGR 191800Z 29011KT CAVOK 32/14 Q1014
SBSG 191800Z 17014KT 140V210 9999 FEW025 29/20 Q1012
SBSP 191800Z 33012KT 300V360 CAVOK 32/11 Q1015
SBSV 191800Z 14009KT 9999 SCT017 SCT070 27/22 Q1017
SCEL 191800Z 20010KT 150V250 CAVOK 27/10 Q1012 NOSIG
SELT 191800Z 17014KT 9999 BKN030 20/08 Q1028
SEQM 191800Z 25007KT 9999 SCT040 25/06 Q1021 NOSIG RMK A3017
SKBO 191800Z 14010KT 9999 BKN020 20/06 A3029
SPZO 191830Z 20005KT 9999 FEW050 SCT100 25/M01 Q1027 NOSIG RMK BIRD HAZARD RWY28
SUMU 191800Z 21013KT CAVOK 17/06 Q1017 NOSIG
SVMI 191700Z 36004KT 9999 SCT016 31/24 Q1011
TFFR 191830Z AUTO 09014KT 9999 BKN030 BKN039 30/22 Q1013
TJSJ 191856Z 11017KT 6SM HZ FEW038 32/23 A2994 RMK AO2 SLP139 T03170233
TNCM 191800Z 13009KT 100V160 9999 FEW022 31/23 Q1015 A2997 NOSIG RMK WND DATA ESTMD MIN VIS 11KM N HZ ALSEC
UAAA 191830Z 16002MPS 5000 FU SCT050 BKN100 08/03 Q1028 R23R/CLRD65 NOSIG
UACC 191830Z 24006MPS 9999 -DZ SCT005 OVC013 05/05 Q1010 R22/250255 NOSIG RMK QBB150 QFE726/0969
UAKK 191830Z 24011MPS 9999 -SHRA BKN010 OVC017CB 03/02 Q1013 R23/2///60 NOSIG RMK QFE713/0951
UBBB 191830Z 17004KT CAVOK 14/13 Q1021 R16/190068 R17/190067 NOSIG
UDYZ 191830Z 01002KT 9999 NSC 09/01 Q1021 R09/000070 NOSIG
UGTB 191830Z 31003KT 280V340 CAVOK 10/07 Q1024 R31L/CLRD70 NOSIG
UHHH 191830Z 02003MPS CAVOK M04/M07 Q1021 R23L/090060 NOSIG RMK QFE759/1012
UKBB 191830Z 03004MPS CAVOK 12/11 Q1016 R88/CLRD// NOSIG
UKHH 191830Z 00000MPS 2400 BR OVC005 12/11 Q1018 R25/0///66 BECMG 1600 OVC004
UKOO 191830Z 19005MPS 4400 BR FEW010 15/14 Q1017 R16/090060 NOSIG
ULLI 191830Z 29002MPS 9999 BKN030 04/02 Q1018 R88/090060 NOSIG
UMMS 191851Z 00000MPS 1300 R31/P1500 BCFG BR FEW001 SCT200 00/M00 Q1020 R31/CLRD// TEMPO 0800 FG
UNKL 191830Z 11002MPS 060V150 7000 SCT005 OVC026 02/01 Q1019 R11/190060 NOSIG RMK QFE738
UNNT 191830Z 15006MPS 9999 SCT040 06/04 Q1011 R07/290160 R16/290160 NOSIG RMK QFE749/0998
URRR 191830Z 26006MPS 240V300 5000 BR SCT007 14/12 Q1018 WS R22 R22/CLRD70 TEMPO 26008G13MPS RMK QBB210 QFE756/1008
URSS 191830Z 06004MPS 9999 NSC 13/10 Q1019 R02/090070 R06/090070 NOSIG RMK R06/09002MPS QFE763
USSS 191830Z 23006MPS 9999 SCT023CB 04/02 Q0996 R26R/290037 NOSIG RMK QFE727/0969
UTTT 191830Z 13004KT CAVOK 10/06 Q1029 R08R/CLRD70 NOSIG
UUBW 191830Z 26002MPS 9999 BKN049 05/02 Q1016 R30/010060 NOSIG
UUDD 191830Z 28004MPS 9999 BKN046 06/01 Q1016 R32L/010095 R32R/290095 NOSIG
UUEE 191830Z 26005MPS CAVOK 04/03 Q1016 R24R/290045 R24L/290051 NOSIG
UUWW 191830Z 27004MPS 9999 SCT048 05/02 Q1017 R24/000070 NOSIG
UWUU 191830Z 25004MPS 230V310 CAVOK 05/01 Q1006 R32L/1///58 NOSIG RMK QFE742/0990
UWWW 191830Z 26003MPS CAVOK 02/M00 Q1012 R23/150055 NOSIG RMK QFE748/0997
VABB 191830Z 00000KT 1900 HZ SCT020 SCT100 29/22 Q1008 NOSIG
VCBI 191810Z 15005KT 9000 SCT016 25/24 Q1010 NOSIG
VCRI 191810Z 28007KT 9000 -SHRA BKN017 26/25 Q1011
VDPP 191830Z VRB02KT 9000 SCT015 SCT040 26/26 Q1009
VDSR 191830Z 31002KT 9000 SCT015 27/26 Q1010
VECC 191900Z 09006KT 3000 - RA SCT018 FEW030CB BKN100 25/24 Q1005 TEMPO TL2030 TSRA
VHHH 191900Z 01008KT 9999 FEW035 23/17 Q1012 NOSIG
VIAR 191830Z 00000KT 3000 BR NSC 20/20 Q1009 NOSIG
VIDP 191830Z 00000KT 2200 FU NSC 26/16 Q1009 NOSIG
VMMC 191830Z 36020KT 9999 FEW030 SCT040 23/18 Q1011 NOSIG
VOBL 191900Z 00000KT 6000 FEW015 20/20 Q1013 NOSIG
VOCI 191830Z 00000KT 5000 HZ SCT015 SCT090 27/24 Q1009 NOSIG
VOCL 191900Z 00000KT 5000 BR FEW015 SCT090 26/25 Q1009 NOSIG
VOHS 191830Z 20003KT 5000 HZ SCT015 BKN100 20/19 Q1010 NOSIG
VOMM 191900Z 22004KT 3500 BR NSC 29/28 Q1007 NOSIG
VOTV 191830Z 13003KT 3000 HZ SCT015 SCT080 26/24 Q1009 NOSIG
VRMM 191800Z 25016KT 9999 FEW018 29/25 Q1011 NOSIG
VTBD 191830Z VRB02KT 9999 FEW020 SCT100 27/24 Q1012 NOSIG
VTBS 191830Z 00000KT 9999 FEW020 SCT100 27/23 Q1012 NOSIG
VTCC 191830Z 20004KT 9999 BKN035 25/22 Q1015 NOSIG
VTSP 191830Z 32003KT 250V020 9999 FEW020 SCT100 28/21 Q1013 NOSIG
VVDN 191830Z VRB01KT 6000 FEW013 SCT050 25/23 Q1011 NOSIG
VVNB 191830Z 33003KT 8000 NSC 24/23 Q1014 NOSIG
VVTS 191830Z 25003KT 2900 HZ NSC 26/26 Q1009 NOSIG
WAAA 191900Z 11001KT 8000 FEW019 25/24 Q1011 NOSIG
WADD 191830Z 30003KT 9999 FEW017 25/23 Q1012 NOSIG
WARR 191800Z 36003KT 7000 FEW020 27/24 Q1012 NOSIG
WBSB 191830Z 22006KT 9999 FEW004 BKN140 25/25 Q1010 NOSIG
WIII 191900Z 23004KT 3500 BR SCT020 26/25 Q1011 NOSIG
WIMM 191830Z 25003KT 1500 HZ SCT018 26/25 Q1011
WMKK 191830Z VRB02KT 6000 FEW030 SCT140 BKN280 28/26 Q1011 NOSIG
WSSS 191900Z VRB02KT 9999 FEW018 BKN300 28/25 Q1011 NOSIG
YBBN 191830Z 06008KT 9999 VCSH FEW018 SCT022 BKN058 21/17 Q1021 NOSIG
YMML 191830Z 24009KT 9999 FEW041 10/07 Q1024 NOSIG
YPAD 191830Z 17005KT 9999 FEW029 11/07 Q1028 NOSIG
YPPH 191842Z 08017G27KT CAVOK 16/06 Q1022 FM1842 MOD TURB BLW 3000FT
YSCB 191830Z 12003KT 9999 FEW003 SCT050 BKN120 14/14 Q1019 TEMPO 1900/2130 5000 -DZ BKN008
YSSY 191830Z 20006KT 9999 -RA FEW018 BKN060 BKN100 19/18 Q1017 RERA INTER 1900/2130 3000 SHRA BKN008
ZBAA 191900Z VRB01MPS 2800 BR NSC 12/11 Q1020 NOSIG
ZBHH 191800Z 01001MPS 5000 BR FEW040 05/03 Q1021 NOSIG
ZBTJ 191900Z VRB01MPS 0900 R34L/P2000U R34R/0150N FG NSC 09/08 Q1020 BECMG TL2000 0700 FG
ZBYN 191900Z 11001MPS 4000 BR NSC 04/03 Q1022 NOSIG
ZGGG 191900Z 01006MPS 9999 BKN040 22/15 Q1013 NOSIG
ZGHA 191800Z 35003MPS 7000 FEW016 OVC040 16/14 Q1019 NOSIG
ZGKL 191900Z 06002MPS 030V090 9999 SCT036 19/14 Q1017 NOSIG
ZGNN 191900Z VRB01MPS CAVOK 22/18 Q1015 NOSIG
ZGSZ 191900Z 02006MPS CAVOK 22/16 Q1012 NOSIG
ZHCC 191800Z 00000MPS 2800 BR NSC 12/11 Q1021 NOSIG
ZHHH 191800Z 05002MPS 5000 BR NSC 12/11 Q1020 NOSIG
ZJHK 191900Z VRB01MPS 6000 -RA SCT013 BKN033 23/23 Q1011 NOSIG
ZJSY 191900Z VRB01MPS 9999 FEW020 BKN050 25/22 Q1011 NOSIG
ZLXY 191900Z VRB01MPS 2500 BR OVC040 12/12 Q1020 NOSIG
ZPPP 191900Z 20003MPS 9999 FEW023 SCT046 13/12 Q1024 NOSIG
ZSAM 191900Z VRB01MPS 9999 BKN050 23/17 Q1011 NOSIG
ZSFZ 191900Z 03007MPS 9999 FEW030 BKN053 23/16 Q1012 NOSIG
ZSHC 191900Z 34003MPS 7000 SCT046 17/13 Q1018 NOSIG
ZSJN 191830Z 01001MPS 2000 R19/0125V0250D BR BCFG NSC 07/07 Q1021 NOSIG
ZSNB 191900Z 33004MPS 6000 BKN030 17/16 Q1017 NOSIG
ZSNJ 191900Z 32001MPS 3000 BR NSC 13/12 Q1020 BECMG TL2030 2500
ZSPD 191900Z 34004MPS CAVOK 18/15 Q1018 NOSIG
ZSSS 191900Z 35004MPS CAVOK 18/15 Q1018 NOSIG
ZUCK 191900Z 02004MPS CAVOK 17/15 Q1018 NOSIG
ZUGY 191900Z 00000MPS 9999 FEW016 OVC030 14/13 Q1020 NOSIG
ZUUU 191900Z 32001MPS 4000 BR SCT030 18/16 Q1018 NOSIG
ZWWW 191900Z 11002MPS CAVOK 07/04 Q1027 NOSIG
ZYHB 191900Z 16001MPS 4000 FU NSC M04/M08 Q1018 NOSIG
ZYTL 191900Z 28001MPS 4000 BR SCT030 10/09 Q1020 NOSIG
ZYTX 191900Z 11002MPS 080V140 3000 BR NSC 06/05 Q1020 BECMG TL2000 2500
